OBJECT_NAME,OBJECT_ID,EPOCH,MEAN_MOTION,ECCENTRICITY,INCLINATION,RA_OF_ASC_NODE,ARG_OF_PERICENTER,MEAN_ANOMALY,EPHEMERIS_TYPE,CLASSIFICATION_TYPE,NORAD_CAT_ID,ELEMENT_SET_NO,REV_AT_EPOCH,BSTAR,MEAN_MOTION_DOT,MEAN_MOTION_DDOT
OSCAR 7 (AO-7),1974-089B,2026-06-25T13:00:57.070080,12.53698202,.0012643,101.9899,189.8760,114.6593,39.6394,0,U,7530,999,36156,.90872E-4,-.32E-6,0
PHASE 3B (AO-10),1983-058B,2026-06-23T16:21:57.137184,2.05872578,.60085647,25.9176,218.4895,117.4551,314.9460,0,U,14129,999,29562,0,-.85E-6,0
UOSAT 2 (UO-11),1984-021B,2026-06-25T19:30:18.696960,14.90803454,.0008383,97.8061,142.2911,145.7665,214.4095,0,U,14781,999,25841,.12598E-3,.1184E-4,0
LUSAT (LO-19),1990-005G,2026-06-25T14:58:31.308672,14.34125496,.0011613,98.8847,198.6620,176.0006,184.1273,0,U,20442,999,90360,.55908E-4,.11E-5,0
EYESAT A (AO-27),1993-061C,2026-06-25T16:05:24.886752,14.30944337,.0009517,98.6877,244.0808,77.9377,282.2872,0,U,22825,999,70821,.4868E-4,.83E-6,0
ITAMSAT (IO-26),1993-061D,2026-06-25T17:12:47.039040,14.31371492,.0009906,98.6824,244.0459,62.8375,297.3817,0,U,22826,999,70853,.48755E-4,.85E-6,0
RADIO ROSTO (RS15),1994-085A,2026-06-25T17:15:06.294240,11.27583427,.0156232,64.8179,289.4185,2.2978,357.8631,0,U,23439,999,29686,.35412E-4,-.41E-6,0
JAS-2 (FO-29),1996-046B,2026-06-25T14:12:04.372128,13.53274737,.0350909,98.5234,24.3122,74.6874,289.2760,0,U,24278,999,47430,.16806E-4,-.16E-6,0
TECHSAT 1B (GO-32),1998-043D,2026-06-25T20:16:27.302880,14.24429931,.0001487,99.0071,169.8219,146.5659,213.5613,0,U,25397,999,45256,.46016E-4,.6E-6,0
ISS (ZARYA),1998-067A,2026-06-25T16:53:07.787904,15.49425151,.0004376,51.6325,257.9368,231.2480,128.8118,0,U,25544,999,57307,.17567E-3,.9385E-4,0
PCSAT (NO-44),2001-043C,2026-06-25T12:58:41.118816,14.31958602,.0006045,67.0493,222.6659,265.0892,94.9520,0,U,26931,999,29164,.65276E-4,.92E-6,0
SAUDISAT 1C (SO-50),2002-058C,2026-06-25T20:29:47.339232,14.83063806,.0075054,64.5519,102.1706,260.8502,98.4108,0,U,27607,999,26574,.1229E-3,.895E-5,0
CUTE-1 (CO-55),2003-031E,2026-06-25T12:53:31.892352,14.24340467,.0010043,98.6736,184.9911,154.4508,205.7169,0,U,27844,999,19286,.14177E-3,.284E-5,0
CUBESAT XI-IV (CO-57),2003-031J,2026-06-25T12:42:56.718432,14.23624963,.0009568,98.6767,184.6898,172.4685,187.6639,0,U,27848,999,19256,.12557E-3,.243E-5,0
MOZHAETS 4 (RS22),2003-042A,2026-06-25T20:18:30.766752,14.73482495,.0009995,98.3475,1.4498,238.5754,234.7065,0,U,27939,999,21682,.22748E-3,.1424E-4,0
CUBESAT XI-V,2005-043F,2026-06-25T08:27:17.571744,14.72651786,.0014207,98.2992,332.1457,174.6504,185.4857,0,U,28895,999,10295,.22378E-3,.1375E-4,0
CUTE-1.7+APD II (CO-65),2008-021C,2026-06-25T20:47:33.211104,15.09530347,.0008896,97.8275,158.4656,12.7911,347.3541,0,U,32785,999,98650,.346E-3,.5488E-4,0
SEEDS II (CO-66),2008-021J,2026-06-25T13:21:24.158304,15.33017433,.0000373,97.7517,174.8550,231.0753,129.0455,0,U,32791,999,98857,.71096E-3,.22634E-3,0
YUBILEINY (RS30),2008-025A,2026-06-25T20:53:37.284288,12.43179877,.0018595,82.5047,350.0380,293.9096,66.0035,0,U,32953,999,82077,.25961E-3,.46E-6,0
KKS-1 (KISEKI),2009-002H,2026-06-25T19:47:38.490720,14.83144082,.0006371,98.1187,99.4039,261.6731,98.3760,0,U,33499,999,93747,.1609E-3,.1256E-4,0
SWISSCUBE,2009-051B,2026-06-25T17:17:57.094080,14.62496515,.0006581,98.4029,84.7576,174.6664,185.4608,0,U,35932,999,89040,.19487E-3,.938E-5,0
BEESAT-1,2009-051C,2026-06-25T17:37:56.312256,14.61733092,.0004779,98.3958,84.3893,186.3683,173.7458,0,U,35933,999,89043,.16647E-3,.781E-5,0
ITUPSAT1,2009-051E,2026-06-25T17:35:36.047040,14.60452303,.0006692,98.4042,83.5704,203.3862,156.7034,0,U,35935,999,88998,.15762E-3,.715E-5,0
XIWANG-1 (HOPE-1),2009-072B,2026-06-25T19:57:45.906048,13.16441127,.0007048,100.4023,130.5256,210.1430,149.9278,0,U,36122,999,79414,.84266E-3,.277E-5,0
O/OREOS (USA 219),2010-062C,2026-06-25T20:02:36.459744,14.93777680,.0012871,71.9701,60.7502,44.6874,315.5331,0,U,37224,999,11793,.20008E-3,.2062E-4,0
JUGNU,2011-058B,2026-06-25T13:35:34.564992,14.13778751,.0018497,19.9600,257.5233,168.3639,315.1616,0,U,37839,999,76021,.71365E-4,.404E-5,0
SRMSAT,2011-058D,2026-06-25T13:19:25.708224,14.11577173,.001171,19.9735,8.8199,296.2835,90.0618,0,U,37841,999,75900,.58142E-4,.372E-5,0
STRAND-1,2013-009E,2026-06-25T11:31:32.234880,14.37167817,.0008182,98.3924,356.5105,198.4624,161.6268,0,U,39090,999,69825,.10767E-3,.278E-5,0
ZACUBE-1 (TSHEPISOSAT),2013-066B,2026-06-25T20:56:17.824128,15.01232202,.0041996,97.8048,139.2539,218.0640,141.7615,0,U,39417,999,68203,.2687E-3,.3451E-4,0
GOMX-1,2013-066Q,2026-06-25T20:00:32.560416,14.69486911,.0129859,97.6487,16.7507,50.1209,311.1332,0,U,39430,999,67118,.25537E-3,.1672E-4,0
