ISS (ZARYA)             
1 25544U 98067A   26176.70356236  .00009385  00000+0  17567-3 0  9997
2 25544  51.6325 257.9368 0004376 231.2480 128.8118 15.49425151573072
OSCAR 7 (AO-7)          
1 07530U 74089B   26176.54232720 -.00000032  00000+0  90872-4 0  9995
2 07530 101.9899 189.8760 0012643 114.6593  39.6394 12.53698202361561
PHASE 3B (AO-10)        
1 14129U 83058B   26174.68191131 -.00000085  00000+0  00000+0 0  9993
2 14129  25.9176 218.4895 6008564 117.4551 314.9460  2.05872578295624
UOSAT 2 (UO-11)         
1 14781U 84021B   26176.81271640  .00001184  00000+0  12598-3 0  9998
2 14781  97.8061 142.2911 0008383 145.7665 214.4095 14.90803454258413
LUSAT (LO-19)           
1 20442U 90005G   26176.62397348  .00000110  00000+0  55908-4 0  9992
2 20442  98.8847 198.6620 0011613 176.0006 184.1273 14.34125496903605
EYESAT A (AO-27)        
1 22825U 93061C   26176.67042693  .00000083  00000+0  48680-4 0  9997
2 22825  98.6877 244.0808 0009517  77.9377 282.2872 14.30944337708211
ITAMSAT (IO-26)         
1 22826U 93061D   26176.71721110  .00000085  00000+0  48755-4 0  9996
2 22826  98.6824 244.0459 0009906  62.8375 297.3817 14.31371492708537
RADIO ROSTO (RS15)      
1 23439U 94085A   26176.71882285 -.00000041  00000+0  35412-4 0  9994
2 23439  64.8179 289.4185 0156232   2.2978 357.8631 11.27583427296866
JAS-2 (FO-29)           
1 24278U 96046B   26176.59171727 -.00000016  00000+0  16806-4 0  9991
2 24278  98.5234  24.3122 0350909  74.6874 289.2760 13.53274737474306
TECHSAT 1B (GO-32)      
1 25397U 98043D   26176.84476045  .00000060  00000+0  46016-4 0  9996
2 25397  99.0071 169.8219 0001487 146.5659 213.5613 14.24429931452568
PCSAT (NO-44)           
1 26931U 01043C   26176.54075369  .00000092  00000+0  65276-4 0  9990
2 26931  67.0493 222.6659 0006045 265.0892  94.9520 14.31958602291641
SAUDISAT 1C (SO-50)     
1 27607U 02058C   26176.85402013  .00000895  00000+0  12290-3 0  9990
2 27607  64.5519 102.1706 0075054 260.8502  98.4108 14.83063806265748
CUTE-1 (CO-55)          
1 27844U 03031E   26176.53717468  .00000284  00000+0  14177-3 0  9991
2 27844  98.6736 184.9911 0010043 154.4508 205.7169 14.24340467192865
CUBESAT XI-IV (CO-57)   
1 27848U 03031J   26176.52982313  .00000243  00000+0  12557-3 0  9992
2 27848  98.6767 184.6898 0009568 172.4685 187.6639 14.23624963192562
MOZHAETS 4 (RS22)       
1 27939U 03042A   26176.84618943  .00001424  00000+0  22748-3 0  9990
2 27939  98.3475   1.4498 0009995 238.5754 234.7065 14.73482495216823
CUBESAT XI-V            
1 28895U 05043F   26176.35228671  .00001375  00000+0  22378-3 0  9990
2 28895  98.2992 332.1457 0014207 174.6504 185.4857 14.72651786102951
CUTE-1.7+APD II (CO-65) 
1 32785U 08021C   26176.86635661  .00005488  00000+0  34600-3 0  9999
2 32785  97.8275 158.4656 0008896  12.7911 347.3541 15.09530347986504
SEEDS II (CO-66)        
1 32791U 08021J   26176.55652961  .00022634  00000+0  71096-3 0  9996
2 32791  97.7517 174.8550 0000373 231.0753 129.0455 15.33017433988577
YUBILEINY (RS30)        
1 32953U 08025A   26176.87057042  .00000046  00000+0  25961-3 0  9997
2 32953  82.5047 350.0380 0018595 293.9096  66.0035 12.43179877820778
KKS-1 (KISEKI)          
1 33499U 09002H   26176.82475105  .00001256  00000+0  16090-3 0  9995
2 33499  98.1187  99.4039 0006371 261.6731  98.3760 14.83144082937479
SWISSCUBE               
1 35932U 09051B   26176.72079970  .00000938  00000+0  19487-3 0  9991
2 35932  98.4029  84.7576 0006581 174.6664 185.4608 14.62496515890403
BEESAT-1                
1 35933U 09051C   26176.73467954  .00000781  00000+0  16647-3 0  9997
2 35933  98.3958  84.3893 0004779 186.3683 173.7458 14.61733092890439
ITUPSAT1                
1 35935U 09051E   26176.73305610  .00000715  00000+0  15762-3 0  9993
2 35935  98.4042  83.5704 0006692 203.3862 156.7034 14.60452303889984
XIWANG-1 (HOPE-1)       
1 36122U 09072B   26176.83178132  .00000277  00000+0  84266-3 0  9991
2 36122 100.4023 130.5256 0007048 210.1430 149.9278 13.16441127794143
O/OREOS (USA 219)       
1 37224U 10062C   26176.83514421  .00002062  00000+0  20008-3 0  9999
2 37224  71.9701  60.7502 0012871  44.6874 315.5331 14.93777680117931
JUGNU                   
1 37839U 11058B   26176.56637228  .00000404  00000+0  71365-4 0  9999
2 37839  19.9600 257.5233 0018497 168.3639 315.1616 14.13778751760212
SRMSAT                  
1 37841U 11058D   26176.55515866  .00000372  00000+0  58142-4 0  9996
2 37841  19.9735   8.8199 0011710 296.2835  90.0618 14.11577173759001
STRAND-1                
1 39090U 13009E   26176.48023420  .00000278  00000+0  10767-3 0  9999
2 39090  98.3924 356.5105 0008182 198.4624 161.6268 14.37167817698251
ZACUBE-1 (TSHEPISOSAT)  
1 39417U 13066B   26176.87242852  .00003451  00000+0  26870-3 0  9998
2 39417  97.8048 139.2539 0041996 218.0640 141.7615 15.01232202682036
GOMX-1                  
1 39430U 13066Q   26176.83371019  .00001672  00000+0  25537-3 0  9999
2 39430  97.6487  16.7507 0129859  50.1209 311.1332 14.69486911671185
